STARLINK-36734
1 67988U 26039C   26090.83335647 -.01860208  00000+0 -63404-1 0  9998
2 67988  42.9986 284.4389 0001585 255.7815 111.4784 15.33170260  6086
